CCSDS_OEM_VERS       = 2.0
CREATION_DATE        = 2024-05-30T16:53:29.0
ORIGINATOR           = MaximeJournot


META_START
OBJECT_NAME          = Mission
OBJECT_ID            = Mission
CENTER_NAME          = EARTH
REF_FRAME            = GCRF
TIME_SYSTEM          = UTC
START_TIME           = 2023-09-01T00:01:00.0
STOP_TIME            = 2023-09-09T13:26:00.0
INTERPOLATION_DEGREE = 1
META_STOP

2023-09-07T07:52:00.0 841.319380290739 610.7568758832284 6812.6395210493465 6.935173975183941 -3.0765884039762326 -0.5769751975997588
2023-09-07T07:53:00.0 1254.7451062294892 425.21472814208636 6763.201403683605 6.858705129960485 -3.1143187437745343 -1.0724909225244053
2023-09-07T07:54:00.0 1662.6909410094784 237.82381741406857 6684.202036926939 6.752268128725709 -3.138435609980186 -1.563266282760571
2023-09-07T07:55:00.0 2063.374651213271 49.4031740561988 6575.990012087204 6.616335814268608 -3.1488370987621135 -2.0471517345717607
2023-09-07T07:56:00.0 2455.0462257079016 -139.22389609409097 6439.041834059253 6.4515107114811965 -3.1454817495138916 -2.522029097742463
2023-09-07T07:57:00.0 2835.9955652832627 -327.23343821968643 6273.9597596589165 6.258522220694082 -3.128388666502585 -2.9858209459232223
2023-09-07T07:58:00.0 3204.5599870130554 -513.8044739892266 6081.4690791535495 6.038223241642272 -3.0976373658042933 -3.436499793096325
2023-09-07T07:59:00.0 3559.1315097425495 -698.1226095726936 5862.414854483923 5.791586246278065 -3.0533673493942324 -3.8720970338247866
2023-09-07T08:00:00.0 3898.1638882859697 -879.3836099491275 5617.758130162792 5.519698821271282 -2.995777409617113 -4.290711596538381
2023-09-07T08:01:00.0 4220.179365243767 -1056.7969234838924 5348.571635222527 5.223758703500428 -2.9251246685812204 -4.69051827090492
2023-09-07T08:02:00.0 4523.775110816427 -1229.5891410643621 5056.034996857872 4.905068334130795 -2.841723358289581 -5.069775672315322
2023-09-07T08:03:00.0 4807.629322584359 -1397.0073744657477 4741.429488564974 4.565028958991507 -2.7459433485388147 -5.426833808655838
2023-09-07T08:04:00.0 5070.506958939964 -1558.3225390735402 4406.132337601764 4.205134304890459 -2.63820843077361 -5.760141216840518
2023-09-07T08:05:00.0 5311.2650817010945 -1712.8325266216066 4051.6106184553196 3.826963863211951 -2.5189943671685557 -6.068251639030525
2023-09-07T08:06:00.0 5528.857785343643 -1859.8652541823342 3679.4147607443806 3.4321758136784197 -2.388826715229648 -6.3498302109916525
2023-09-07T08:07:00.0 5722.340692309851 -1998.7815762955338 3291.1717015494687 3.0224996224632688 -2.2482784391460426 -6.603659137688614
2023-09-07T08:08:00.0 5890.874995929768 -2128.978047821134 2888.5777135762405 2.59972834995034 -2.0979673199838507 -6.8286428339188925
2023-09-07T08:09:00.0 6033.731034636241 -2249.8895258492644 2473.390941805767 2.1657107043367496 -1.9385531775928448 -7.0238125105460805
2023-09-07T08:10:00.0 6150.291383345939 -2360.991599795138 2047.4236823628548 1.7223428779693153 -1.7707349177910292 -7.188330189682609
2023-09-07T08:11:00.0 6240.053450102068 -2461.802839635157 1612.534438256898 1.2715602038136913 -1.595247419007256 -7.3214921349679765
2023-09-07T08:12:00.0 6302.631568330143 -2551.8868531108706 1170.6197873812187 0.8153286697461222 -1.4128582730840862 -7.422731685891916
2023-09-07T08:13:00.0 6337.7585773167275 -2630.8541436187274 723.6060987471794 0.3556363284901413 -1.224364395391856 -7.49162148788113
2023-09-07T08:14:00.0 6345.286885788201 -2698.363761422051 273.44113335346196 -0.10551535902586329 -1.0305885197726257 -7.527875112610008
2023-09-07T08:15:00.0 6325.1890157265225 -2754.124741768091 -177.91443370386864 -0.5661202093862571 -0.8323755940968052 -7.531348065693935
2023-09-07T08:16:00.0 6277.557625790986 -2797.897324433585 -628.4955331157195 -1.024175994290475 -0.6305890924501085 -7.502038181542529
2023-09-07T08:17:00.0 6202.605015931885 -2829.493950196589 -1076.3412265973388 -1.4776930734416025 -0.42610726007633115 -7.440085407720643
2023-09-07T08:18:00.0 6100.662116954103 -2848.7800306953104 -1519.503201019476 -1.924702946757039 -0.21981930727744833 -7.345770983639366
2023-09-07T08:19:00.0 5972.176970920355 -2855.6744891075227 -1956.0541953487484 -2.3632666907450273 -0.012621568462059201 -7.219516020793214
2023-09-07T08:20:00.0 5817.712710364888 -2850.150070052027 -2384.096324807031 -2.7914832447930173 0.1945863575310655 -7.061879494060431
2023-09-07T08:21:00.0 5637.945046306505 -2832.23341807628 -2801.7692673102397 -3.207497514141903 0.40090546984075315 -6.873555655781036
2023-09-07T08:22:00.0 5433.659277019641 -2802.004925048058 -3207.2582779813433 -3.609508257397575 0.6054412148954191 -6.65537088644048
2023-09-07T08:23:00.0 5205.746831394951 -2759.5983477092973 -3598.8019984688976 -3.995775727672238 0.8073073070578626 -6.408279997768583
2023-09-07T08:24:00.0 4955.201362551031 -2705.200197575823 -3974.7000287642986 -4.364629037672914 1.005629505290198 -6.133362005973875
2023-09-07T08:25:00.0 4683.114409097306 -2639.0489062759534 -4333.320230339384 -4.714473220402579 1.199549330854682 -5.831815394627682
2023-09-07T08:26:00.0 4390.670643080994 -2561.43377030215 -4673.105730676139 -5.043795958562689 1.3882277114452501 -5.504952888377334
2023-09-07T08:27:00.0 4079.142725262153 -2472.693680022463 -4992.581600518739 -5.35117395713304 1.570848537512346 -5.154195760302447
2023-09-07T08:28:00.0 3749.885789808057 -2373.2156386302313 -5290.361176645415 -5.6352789351524315 1.746622117006215 -4.781067697181286
2023-09-07T08:29:00.0 3404.3315819043246 -2263.4330775247195 -5565.152004429031 -5.894883214230405 1.9147885152147945 -4.387188248345593
2023-09-07T08:30:00.0 3043.982273083511 -2143.823975400369 -5815.761376032449 -6.128864882888631 2.074620766864144 -3.9742658851103516
2023-09-07T08:31:00.0 2670.4039802635143 -2014.9087890713163 -6041.101441749273 -6.336212517442316 2.2254279481756245 -3.544090698963859
2023-09-07T08:32:00.0 2285.22001562343 -1877.2482047881426 -6240.193873704776 -6.51602944174565 2.366558097106554 -3.0985267678609856
2023-09-07T08:33:00.0 1890.103895406054 -1731.4407194756225 -6412.174062952333 -6.667537509814619 2.4974009705906455 -2.639504220949391
2023-09-07T08:34:00.0 1486.7721366958656 -1578.1200619901683 -6556.29483281425 -6.790080396994376 2.6173906281641495 -2.1690110330747956
2023-09-07T08:35:00.0 1076.9768719932297 -1417.9524651006445 -6671.929653242799 -6.88312638707257 2.726007831993505 -1.6890845812485855
2023-09-07T08:36:00.0 662.4983121228996 -1251.633799479966 -6758.575342920891 -6.9462706444684255 2.822782253950865 -1.2018029960737753
2023-09-07T08:37:00.0 245.13708861683355 -1079.88658153691 -6815.854247821616 -6.979236962392131 2.9072944810428476 -0.7092763418471959
2023-09-07T08:38:00.0 -173.2934928036104 -903.4568674151001 -6843.515886988513 -6.9818789796613565 2.979177811181684 -0.2136376596854143
2023-09-07T08:39:00.0 -590.9752556483252 -723.1110459396648 -6841.438058372212 -6.954180860675178 3.0381198319930087 0.28296609143431395
2023-09-07T08:40:00.0 -1006.0929806729557 -539.6325437231841 -6809.62739966175 -6.896257434887056 3.083863776074936 0.778383160308194
2023-09-07T08:41:00.0 -1416.8422260528498 -353.818455998652 -6748.219401187337 -6.808353793992396 3.1162096468819107 1.2704661600595684
2023-09-07T08:42:00.0 -1821.437107215652 -166.47611707915058 -6657.477870119957 -6.690844346939328 3.1350151101774335 1.757081219535458
2023-09-07T08:43:00.0 -2218.1180038913026 21.580375375142264 -6537.793847363479 -6.544231334797129 3.140196146799016 2.236117093253486
2023-09-07T08:44:00.0 -2605.159162127013 209.53366787580308 -6389.683980712784 -6.3691428094648215 3.13172746330362 2.7054941935033607
2023-09-07T08:45:00.0 -2980.876159312549 396.5666758245935 -6213.7883600307905 -6.1663300821730465 3.1096426579091765 3.1631735081955923
2023-09-07T08:46:00.0 -3343.6332006594175 581.8661107077694 -6010.86782238489 -5.936664649736435 3.0740341400215705 3.6071653681237086
2023-09-07T08:47:00.0 -3691.8502161476044 764.625994983625 -5781.800737240278 -5.681134608511313 3.025052802532375 4.035538027556442
2023-09-07T08:48:00.0 -4024.009727575627 944.0511498423534 -5527.579283975766 -5.40084056805745 2.9629074469934924 4.446426022363021
2023-09-07T08:49:00.0 -4338.663456146372 1119.3606410601712 -5249.305236114818 -5.096991078534691 2.887863962717585 4.838038270352119
2023-09-07T08:50:00.0 -4634.438641938493 1289.7911682706983 -4948.185268746762 -4.770897587886587 2.8002442618099237 5.208665879114711
2023-09-07T08:51:00.0 -4910.0440475899795 1454.6003831009898 -4625.525807711541 -4.42396894694103 2.7004249731270367 5.556689627332738
2023-09-07T08:52:00.0 -5164.275619720025 1613.070121858169 -4282.727441090838 -4.05770548253444 2.5888358991419906 5.8805870864581
2023-09-07T08:53:00.0 -5396.021782848104 1764.5095387042882 -3921.278915526163 -3.6736926607926637 2.4659582407082103 6.1789393506525
2023-09-07T08:54:00.0 -5604.268341953689 1908.258125585017 -3542.7507417838087 -3.273594364681802 2.3323225957334524 6.450437344060586
2023-09-07T08:55:00.0 -5788.102971349265 2043.6886055864147 -3148.788435757773 -2.8591458118229247 2.188506738780222 6.6938876758672725
2023-09-07T08:56:00.0 -5946.719269113226 2170.2096868185668 -2741.105422893959 -2.432146140502841 2.035133189648893 6.908218015042845
2023-09-07T08:57:00.0 -6079.420358098141 2287.26866446637 -2321.4756355801064 -1.9944506935380113 1.8728665799866124 7.092481958406346
2023-09-07T08:58:00.0 -6185.622016327191 2394.353859197702 -1891.7258346317592 -1.547963031428576 1.7024108279847385 7.245863367429637
2023-09-07T08:59:00.0 -6264.855321541016 2490.9968807637056 -1453.7276873855255 -1.0946267078273608 1.5245061321973896 7.367680151227762
2023-09-07T09:00:00.0 -6316.768796677009 2576.774706313095 -1009.3896362043181 -0.6364168418648319 1.3399257964708153 7.457387475334839
2023-09-07T09:01:00.0 -6341.130045173032 2651.3115636855005 -560.6485923706512 -0.17533152327328616 1.1494728989042524 7.5145803781778495
